<?xml version="1.0" encoding="UTF-8"?>
<ndm xmlns:xsi="http://www.w3.org/2001/XMLSchema-instance" xsi:noNamespaceSchemaLocation="https://sanaregistry.org/r/ndmxml_unqualified/ndmxml-2.0.0-master-2.0.xsd">
<omm id="CCSDS_OMM_VERS" version="2.0">
<header><CREATION_DATE/><ORIGINATOR/></header><body><segment><metadata><OBJECT_NAME>IRIDIUM 57</OBJECT_NAME><OBJECT_ID>1998-019B</OBJECT_ID><CENTER_NAME>EARTH</CENTER_NAME><REF_FRAME>TEME</REF_FRAME><TIME_SYSTEM>UTC</TIME_SYSTEM><MEAN_ELEMENT_THEORY>SGP4</MEAN_ELEMENT_THEORY></metadata><data><meanElements><EPOCH>2024-04-27T19:24:05.484384</EPOCH><MEAN_MOTION>14.35173374</MEAN_MOTION><ECCENTRICITY>.000216</ECCENTRICITY><INCLINATION>86.3933</INCLINATION><RA_OF_ASC_NODE>319.2396</RA_OF_ASC_NODE><ARG_OF_PERICENTER>87.8701</ARG_OF_PERICENTER><MEAN_ANOMALY>272.2742</MEAN_ANOMALY></meanElements><tleParameters><EPHEMERIS_TYPE>0</EPHEMERIS_TYPE><CLASSIFICATION_TYPE>U</CLASSIFICATION_TYPE><NORAD_CAT_ID>25273</NORAD_CAT_ID><ELEMENT_SET_NO>999</ELEMENT_SET_NO><REV_AT_EPOCH>36519</REV_AT_EPOCH><BSTAR>.28177E-3</BSTAR><MEAN_MOTION_DOT>.824E-5</MEAN_MOTION_DOT><MEAN_MOTION_DDOT>0</MEAN_MOTION_DDOT></tleParameters></data></segment></body></omm>
<omm id="CCSDS_OMM_VERS" version="2.0">
<header><CREATION_DATE/><ORIGINATOR/></header><body><segment><metadata><OBJECT_NAME>IRIDIUM 63</OBJECT_NAME><OBJECT_ID>1998-021B</OBJECT_ID><CENTER_NAME>EARTH</CENTER_NAME><REF_FRAME>TEME</REF_FRAME><TIME_SYSTEM>UTC</TIME_SYSTEM><MEAN_ELEMENT_THEORY>SGP4</MEAN_ELEMENT_THEORY></metadata><data><meanElements><EPOCH>2024-04-27T22:06:16.463232</EPOCH><MEAN_MOTION>14.35715552</MEAN_MOTION><ECCENTRICITY>.0002112</ECCENTRICITY><INCLINATION>86.3968</INCLINATION><RA_OF_ASC_NODE>256.0614</RA_OF_ASC_NODE><ARG_OF_PERICENTER>98.2261</ARG_OF_PERICENTER><MEAN_ANOMALY>261.9176</MEAN_ANOMALY></meanElements><tleParameters><EPHEMERIS_TYPE>0</EPHEMERIS_TYPE><CLASSIFICATION_TYPE>U</CLASSIFICATION_TYPE><NORAD_CAT_ID>25286</NORAD_CAT_ID><ELEMENT_SET_NO>999</ELEMENT_SET_NO><REV_AT_EPOCH>36424</REV_AT_EPOCH><BSTAR>.44725E-3</BSTAR><MEAN_MOTION_DOT>.1311E-4</MEAN_MOTION_DOT><MEAN_MOTION_DDOT>0</MEAN_MOTION_DDOT></tleParameters></data></segment></body></omm>
<omm id="CCSDS_OMM_VERS" version="2.0">
<header><CREATION_DATE/><ORIGINATOR/></header><body><segment><metadata><OBJECT_NAME>IRIDIUM 69</OBJECT_NAME><OBJECT_ID>1998-026A</OBJECT_ID><CENTER_NAME>EARTH</CENTER_NAME><REF_FRAME>TEME</REF_FRAME><TIME_SYSTEM>UTC</TIME_SYSTEM><MEAN_ELEMENT_THEORY>SGP4</MEAN_ELEMENT_THEORY></metadata><data><meanElements><EPOCH>2024-04-27T22:17:03.076512</EPOCH><MEAN_MOTION>14.39929393</MEAN_MOTION><ECCENTRICITY>.0001496</ECCENTRICITY><INCLINATION>86.3940</INCLINATION><RA_OF_ASC_NODE>270.6061</RA_OF_ASC_NODE><ARG_OF_PERICENTER>14.6612</ARG_OF_PERICENTER><MEAN_ANOMALY>345.4630</MEAN_ANOMALY></meanElements><tleParameters><EPHEMERIS_TYPE>0</EPHEMERIS_TYPE><CLASSIFICATION_TYPE>U</CLASSIFICATION_TYPE><NORAD_CAT_ID>25319</NORAD_CAT_ID><ELEMENT_SET_NO>999</ELEMENT_SET_NO><REV_AT_EPOCH>36328</REV_AT_EPOCH><BSTAR>.50734E-3</BSTAR><MEAN_MOTION_DOT>.1614E-4</MEAN_MOTION_DOT><MEAN_MOTION_DDOT>0</MEAN_MOTION_DDOT></tleParameters></data></segment></body></omm>
<omm id="CCSDS_OMM_VERS" version="2.0">
<header><CREATION_DATE/><ORIGINATOR/></header><body><segment><metadata><OBJECT_NAME>IRIDIUM 71</OBJECT_NAME><OBJECT_ID>1998-026B</OBJECT_ID><CENTER_NAME>EARTH</CENTER_NAME><REF_FRAME>TEME</REF_FRAME><TIME_SYSTEM>UTC</TIME_SYSTEM><MEAN_ELEMENT_THEORY>SGP4</MEAN_ELEMENT_THEORY></metadata><data><meanElements><EPOCH>2024-04-27T22:32:56.967936</EPOCH><MEAN_MOTION>14.40249832</MEAN_MOTION><ECCENTRICITY>.0003341</ECCENTRICITY><INCLINATION>86.3946</INCLINATION><RA_OF_ASC_NODE>265.3693</RA_OF_ASC_NODE><ARG_OF_PERICENTER>54.0225</ARG_OF_PERICENTER><MEAN_ANOMALY>306.1283</MEAN_ANOMALY></meanElements><tleParameters><EPHEMERIS_TYPE>0</EPHEMERIS_TYPE><CLASSIFICATION_TYPE>U</CLASSIFICATION_TYPE><NORAD_CAT_ID>25320</NORAD_CAT_ID><ELEMENT_SET_NO>999</ELEMENT_SET_NO><REV_AT_EPOCH>36380</REV_AT_EPOCH><BSTAR>.42961E-3</BSTAR><MEAN_MOTION_DOT>.1379E-4</MEAN_MOTION_DOT><MEAN_MOTION_DDOT>0</MEAN_MOTION_DDOT></tleParameters></data></segment></body></omm>
<omm id="CCSDS_OMM_VERS" version="2.0">
<header><CREATION_DATE/><ORIGINATOR/></header><body><segment><metadata><OBJECT_NAME>IRIDIUM 73</OBJECT_NAME><OBJECT_ID>1998-032C</OBJECT_ID><CENTER_NAME>EARTH</CENTER_NAME><REF_FRAME>TEME</REF_FRAME><TIME_SYSTEM>UTC</TIME_SYSTEM><MEAN_ELEMENT_THEORY>SGP4</MEAN_ELEMENT_THEORY></metadata><data><meanElements><EPOCH>2024-04-27T19:18:28.007712</EPOCH><MEAN_MOTION>14.50466889</MEAN_MOTION><ECCENTRICITY>.0001773</ECCENTRICITY><INCLINATION>86.4466</INCLINATION><RA_OF_ASC_NODE>222.9298</RA_OF_ASC_NODE><ARG_OF_PERICENTER>81.2991</ARG_OF_PERICENTER><MEAN_ANOMALY>278.8415</MEAN_ANOMALY></meanElements><tleParameters><EPHEMERIS_TYPE>0</EPHEMERIS_TYPE><CLASSIFICATION_TYPE>U</CLASSIFICATION_TYPE><NORAD_CAT_ID>25344</NORAD_CAT_ID><ELEMENT_SET_NO>999</ELEMENT_SET_NO><REV_AT_EPOCH>37032</REV_AT_EPOCH><BSTAR>.42673E-3</BSTAR><MEAN_MOTION_DOT>.1688E-4</MEAN_MOTION_DOT><MEAN_MOTION_DDOT>0</MEAN_MOTION_DDOT></tleParameters></data></segment></body></omm>
<omm id="CCSDS_OMM_VERS" version="2.0">
<header><CREATION_DATE/><ORIGINATOR/></header><body><segment><metadata><OBJECT_NAME>IRIDIUM 82</OBJECT_NAME><OBJECT_ID>1998-051A</OBJECT_ID><CENTER_NAME>EARTH</CENTER_NAME><REF_FRAME>TEME</REF_FRAME><TIME_SYSTEM>UTC</TIME_SYSTEM><MEAN_ELEMENT_THEORY>SGP4</MEAN_ELEMENT_THEORY></metadata><data><meanElements><EPOCH>2024-04-27T13:29:16.766304</EPOCH><MEAN_MOTION>15.08772169</MEAN_MOTION><ECCENTRICITY>.0132267</ECCENTRICITY><INCLINATION>86.3716</INCLINATION><RA_OF_ASC_NODE>309.7798</RA_OF_ASC_NODE><ARG_OF_PERICENTER>47.3363</ARG_OF_PERICENTER><MEAN_ANOMALY>313.8927</MEAN_ANOMALY></meanElements><tleParameters><EPHEMERIS_TYPE>0</EPHEMERIS_TYPE><CLASSIFICATION_TYPE>U</CLASSIFICATION_TYPE><NORAD_CAT_ID>25467</NORAD_CAT_ID><ELEMENT_SET_NO>999</ELEMENT_SET_NO><REV_AT_EPOCH>36085</REV_AT_EPOCH><BSTAR>.96795E-3</BSTAR><MEAN_MOTION_DOT>.18733E-3</MEAN_MOTION_DOT><MEAN_MOTION_DDOT>0</MEAN_MOTION_DDOT></tleParameters></data></segment></body></omm>
<omm id="CCSDS_OMM_VERS" version="2.0">
<header><CREATION_DATE/><ORIGINATOR/></header><body><segment><metadata><OBJECT_NAME>IRIDIUM 2</OBJECT_NAME><OBJECT_ID>1998-066A</OBJECT_ID><CENTER_NAME>EARTH</CENTER_NAME><REF_FRAME>TEME</REF_FRAME><TIME_SYSTEM>UTC</TIME_SYSTEM><MEAN_ELEMENT_THEORY>SGP4</MEAN_ELEMENT_THEORY></metadata><data><meanElements><EPOCH>2024-04-27T21:02:42.598752</EPOCH><MEAN_MOTION>15.70395178</MEAN_MOTION><ECCENTRICITY>.0004273</ECCENTRICITY><INCLINATION>85.5056</INCLINATION><RA_OF_ASC_NODE>335.9302</RA_OF_ASC_NODE><ARG_OF_PERICENTER>131.9025</ARG_OF_PERICENTER><MEAN_ANOMALY>228.2609</MEAN_ANOMALY></meanElements><tleParameters><EPHEMERIS_TYPE>0</EPHEMERIS_TYPE><CLASSIFICATION_TYPE>U</CLASSIFICATION_TYPE><NORAD_CAT_ID>25527</NORAD_CAT_ID><ELEMENT_SET_NO>999</ELEMENT_SET_NO><REV_AT_EPOCH>39998</REV_AT_EPOCH><BSTAR>.13808E-2</BSTAR><MEAN_MOTION_DOT>.17145E-2</MEAN_MOTION_DOT><MEAN_MOTION_DDOT>0</MEAN_MOTION_DDOT></tleParameters></data></segment></body></omm>
</ndm>
