IRIDIUM 57              
1 25273U 98019B   24118.80839681  .00000824  00000+0  28177-3 0  9996
2 25273  86.3933 319.2396 0002160  87.8701 272.2742 14.35173374365194
IRIDIUM 63              
1 25286U 98021B   24118.92102388  .00001311  00000+0  44725-3 0  9992
2 25286  86.3968 256.0614 0002112  98.2261 261.9176 14.35715552364242
IRIDIUM 69              
1 25319U 98026A   24118.92850783  .00001614  00000+0  50734-3 0  9996
2 25319  86.3940 270.6061 0001496  14.6612 345.4630 14.39929393363283
IRIDIUM 71              
1 25320U 98026B   24118.93954824  .00001379  00000+0  42961-3 0  9991
2 25320  86.3946 265.3693 0003341  54.0225 306.1283 14.40249832363803
IRIDIUM 73              
1 25344U 98032C   24118.80449083  .00001688  00000+0  42673-3 0  9999
2 25344  86.4466 222.9298 0001773  81.2991 278.8415 14.50466889370327
IRIDIUM 82              
1 25467U 98051A   24118.56199961  .00018733  00000+0  96795-3 0  9999
2 25467  86.3716 309.7798 0132267  47.3363 313.8927 15.08772169360858
IRIDIUM 2               
1 25527U 98066A   24118.87688193  .00171450  00000+0  13808-2 0  9995
2 25527  85.5056 335.9302 0004273 131.9025 228.2609 15.70395178399987
